STARLINK-2504
1 48328U 21036BE  26061.16668981  .01527940  00000+0  81443-1 0  9995
2 48328  53.0760 135.3367 0001468 117.8667 136.9886 15.11866691  5821
